STARLINK-33774          
1 63721U 25087AA  25127.91668981 -.01220872  44368-3 -34233-2 0  9995
2 63721  53.1554 211.1665 0000705  57.6736  28.8081 15.92950075  1463
STARLINK-33767          
1 63722U 25087AB  25127.91668981 -.01185298  41939-3 -33679-2 0  9992
2 63722  53.1556 211.1851 0000835  51.6914  25.9004 15.92690611  1470
STARLINK-33806          
1 63723U 25087AC  25127.91668981 -.01206646  43377-3 -34059-2 0  9995
2 63723  53.1554 211.1760 0000803  52.4843  29.5123 15.92821075  1475
KUIPER-00008            
1 63724U 25088A   25128.16667824  .00034077  00000+0  10153-2 0  9995
2 63724  51.8608  53.5581 0010393 146.7590 357.2869 15.34318742  2041
KUIPER-00009            
1 63725U 25088B   25128.16667824  .00034702  00000+0  10253-2 0  9992
2 63725  51.8645  53.5423 0009810 143.5564   8.3564 15.34579255  2040
KUIPER-00010            
1 63726U 25088C   25128.16667824  .00034508  00000+0  10226-2 0  9997
2 63726  51.8660  53.5473 0009813 144.6269   4.8830 15.34488394  1656
KUIPER-00011            
1 63727U 25088D   25128.16667824  .00032862  00000+0  99298-3 0  9996
2 63727  51.8592  53.5862 0011843 151.0819 338.8076 15.33875741  1806
KUIPER-00012            
1 63728U 25088E   25127.91668981 -.00016532  00000+0 -48382-3 0  9990
2 63728  51.8578  54.7816 0011402 152.0019  39.4384 15.33987078  1710
KUIPER-00013            
1 63729U 25088F   25127.91668981 -.00016135  00000+0 -46799-3 0  9990
2 63729  51.8619  54.7650 0010755 146.1592  53.8877 15.34255830  1816
KUIPER-00014            
1 63730U 25088G   25128.16667824  .00032541  00000+0  98659-3 0  9994
2 63730  51.8608  53.5933 0011889 154.6260 332.0007 15.33774333  1654
KUIPER-00015            
1 63731U 25088H   25127.91668981 -.00016304  00000+0 -47448-3 0  9993
2 63731  51.8633  54.7743 0011403 150.9245  44.6844 15.34150431  2080
KUIPER-00016            
1 63732U 25088J   25128.16667824  .00034949  00000+0  10298-2 0  9992
2 63732  51.8636  53.5354 0009121 142.4411  13.0330 15.34667649  1650
KUIPER-00018            
1 63733U 25088K   25128.16667824  .00036236  00000+0  10470-2 0  9996
2 63733  51.8692  53.4916 0006664 129.4623  46.8121 15.35284781  1650
KUIPER-00019            
1 63734U 25088L   25127.91668981 -.00015329  00000+0 -42501-3 0  9997
2 63734  51.8699  54.6720 0004789 125.8111 119.1848 15.35670595  1306
KUIPER-00020            
1 63735U 25088M   25128.16667824  .00036059  00000+0  10450-2 0  9999
2 63735  51.8702  53.4970 0006741 135.4805  37.8574 15.35193156  1870
KUIPER-00021            
1 63736U 25088N   25127.91668981 -.00015455  00000+0 -43727-3 0  9990
2 63736  51.8657  54.7151 0007610 138.8276  85.8646 15.35026179  1660
KUIPER-00023            
1 63737U 25088P   25128.16667824  .00035539  00000+0  10385-2 0  9990
2 63737  51.8669  53.5181 0008540 135.5113  28.2958 15.34926877  2000
KUIPER-00024            
1 63738U 25088Q   25128.16667824  .00037185  00000+0  10311-2 0  9999
2 63738  51.8737  53.3959 0001730  94.4729 124.6957 15.36576690  2138
KUIPER-00025            
1 63739U 25088R   25128.16667824  .00036373  00000+0  10477-2 0  9991
2 63739  51.8682  53.4859 0006028 132.1536  47.2915 15.35384363  1999
KUIPER-00027            
1 63740U 25088S   25127.91668981 -.00015579  00000+0 -42503-3 0  9993
2 63740  51.8732  54.6300 0003342 127.9955 134.2677 15.36189321  1680
KUIPER-00028            
1 63741U 25088T   25127.91668981 -.00015765  00000+0 -42760-3 0  9996
2 63741  51.8725  54.6209 0002595 125.0068 143.3010 15.36383626  2096
KUIPER-00029            
1 63742U 25088U   25128.16667824  .00036575  00000+0  10490-2 0  9994
2 63742  51.8716  53.4736 0005583 129.5627  54.4023 15.35518503  1659
KUIPER-00030            
1 63743U 25088V   25128.16667824  .00035301  00000+0  10350-2 0  9996
2 63743  51.8680  53.5245 0008630 140.2342  20.3118 15.34823986  1948
KUIPER-00031            
1 63744U 25088W   25127.91668981 -.00015414  00000+0 -42361-3 0  9997
2 63744  51.8719  54.6491 0004504 123.3079 131.4667 15.35949162  1581
KUIPER-00032            
1 63745U 25088X   25128.16667824  .00036760  00000+0  10505-2 0  9990
2 63745  51.8708  53.4651 0005638 121.6420  67.0160 15.35629478  2662
KUIPER-00033            
1 63746U 25088Y   25127.91668981 -.00016125  00000+0 -43354-3 0  9992
2 63746  51.8733  54.5987 0001278 119.0957 158.8067 15.36677829  2105
KUIPER-00034            
1 63747U 25088Z   25127.91668981 -.00015888  00000+0 -42944-3 0  9992
2 63747  51.8736  54.6066 0002069 121.3883 150.7038 15.36498657  1783
KUIPER-00035            
1 63748U 25088AA  25127.91668981 -.00015479  00000+0 -42406-3 0  9992
2 63748  51.8713  54.6438 0003884 128.9822 129.0857 15.36052705  1838
KUIPER-00037            
1 63749U 25088AB  25128.16667824  .00037186  00000+0  10421-2 0  9994
2 63749  51.8730  53.4206 0003059 112.1900  96.1026 15.36244607  2662
KUIPER-00038            
1 63750U 25088AC  25127.91668981 -.00015382  00000+0 -42373-3 0  9991
2 63750  51.8724  54.6530 0004680 131.9859 120.2593 15.35872814  1307
